OBJECT_NAME,OBJECT_ID,EPOCH,MEAN_MOTION,ECCENTRICITY,INCLINATION,RA_OF_ASC_NODE,ARG_OF_PERICENTER,MEAN_ANOMALY,EPHEMERIS_TYPE,CLASSIFICATION_TYPE,NORAD_CAT_ID,ELEMENT_SET_NO,REV_AT_EPOCH,BSTAR,MEAN_MOTION_DOT,MEAN_MOTION_DDOT
ORBCOMM FM06,1997-084G,2026-07-18T04:36:10.780416,14.47630534,.00017331,45.0133,263.4477,242.5256,146.5020,0,U,25118,999,49888,.14766957E-3,.404E-5,0
ORBCOMM FM04,1998-007C,2026-07-18T01:12:40.567392,14.35787388,.00419889,107.9632,232.9431,272.0767,87.5566,0,U,25159,999,48102,.15935403E-3,.332E-5,0
ORBCOMM FM19,1998-046C,2026-07-18T02:52:00.857568,14.39544535,.00032424,44.9937,96.5216,82.1227,62.3554,0,U,25415,999,46123,.17264591E-3,.401E-5,0
ORBCOMM FM20,1998-046D,2026-07-18T03:14:48.784704,14.38102815,.0001161,44.9939,104.7114,17.6041,342.4847,0,U,25416,999,46124,.1387142E-3,.282E-5,0
ORBCOMM FM27,1998-053G,2026-07-18T00:12:37.075680,14.39187661,.00023056,45.0034,188.9543,301.0141,59.0482,0,U,25481,999,45467,.14087945E-3,.298E-5,0
ORBCOMM FM32,1999-065C,2026-07-18T03:43:08.427360,14.37170396,.00059759,45.0158,26.6522,205.9184,154.1366,0,U,25982,999,39154,.12796607E-3,.242E-5,0
ORBCOMM FM109,2014-040A,2026-07-18T07:52:43.859424,14.58873136,.0001413,47.0031,304.2514,334.8943,25.1874,0,U,40086,999,63889,.45310793E-4,.43E-6,0
ORBCOMM FM110,2015-081D,2026-07-18T01:25:01.894080,14.58920044,.00037003,47.0001,215.4671,234.1529,125.9014,0,U,41182,999,56213,.66875065E-4,.145E-5,0
ORBCOMM FM118,2015-081E,2026-07-18T07:10:30.213120,14.58905275,.00030699,47.0025,214.6722,200.0424,160.0342,0,U,41183,999,56227,.43117674E-4,.32E-6,0
ORBCOMM FM112,2015-081F,2026-07-18T03:58:55.966656,14.58940820,.0003518,46.9985,123.7509,341.1302,18.9453,0,U,41184,999,56347,.86780181E-4,.239E-5,0
ORBCOMM FM113,2015-081G,2026-07-18T03:26:50.432064,14.58883692,.00020617,47.0002,124.2491,332.9618,27.1161,0,U,41185,999,56345,.59319698E-4,.109E-5,0
ORBCOMM FM108,2015-081J,2026-07-18T05:49:16.107456,14.58912870,.000246,47.0057,35.3630,333.8999,26.1763,0,U,41187,999,56461,.8151646E-4,.214E-5,0
ORBCOMM FM117,2015-081K,2026-07-17T22:25:29.439264,14.58899752,.00028841,47.0021,35.4466,340.6172,19.4603,0,U,41188,999,56461,.82286529E-4,.218E-5,0
ORBCOMM FM116,2015-081L,2026-07-18T04:31:20.203392,14.58908278,.00016468,47.0016,124.0343,237.6891,122.3836,0,U,41189,999,56346,.67478251E-4,.148E-5,0
