ORBCOMM FM06            
1 25118U 97084G   26199.19179144  .00000404  00000+0  14767-3 0  9993
2 25118  45.0133 263.4477 0001733 242.5256 146.5020 14.47630534498880
ORBCOMM FM04            
1 25159U 98007C   26199.05046953  .00000332  00000+0  15935-3 0  9998
2 25159 107.9632 232.9431 0041988 272.0767  87.5566 14.35787388481023
ORBCOMM FM19            
1 25415U 98046C   26199.11945437  .00000401  00000+0  17265-3 0  9993
2 25415  44.9937  96.5216 0003242  82.1227  62.3554 14.39544535461231
ORBCOMM FM20            
1 25416U 98046D   26199.13528686  .00000282  00000+0  13871-3 0  9995
2 25416  44.9939 104.7114 0001161  17.6041 342.4847 14.38102815461246
ORBCOMM FM27            
1 25481U 98053G   26199.00876245  .00000298  00000+0  14088-3 0  9996
2 25481  45.0034 188.9543 0002305 301.0141  59.0482 14.39187661454676
ORBCOMM FM32            
1 25982U 99065C   26199.15495865  .00000242  00000+0  12797-3 0  9991
2 25982  45.0158  26.6522 0005975 205.9184 154.1366 14.37170396391548
ORBCOMM FM109           
1 40086U 14040A   26199.32828541  .00000043  00000+0  45311-4 0  9991
2 40086  47.0031 304.2514 0001413 334.8943  25.1874 14.58873136638894
ORBCOMM FM110           
1 41182U 15081D   26199.05904970  .00000145  00000+0  66875-4 0  9997
2 41182  47.0001 215.4671 0003700 234.1529 125.9014 14.58920044562138
ORBCOMM FM118           
1 41183U 15081E   26199.29896080  .00000032  00000+0  43118-4 0  9996
2 41183  47.0025 214.6722 0003069 200.0424 160.0342 14.58905275562275
ORBCOMM FM112           
1 41184U 15081F   26199.16592554  .00000239  00000+0  86780-4 0  9993
2 41184  46.9985 123.7509 0003518 341.1302  18.9453 14.58940820563475
ORBCOMM FM113           
1 41185U 15081G   26199.14363926  .00000109  00000+0  59320-4 0  9997
2 41185  47.0002 124.2491 0002061 332.9618  27.1161 14.58883692563453
ORBCOMM FM108           
1 41187U 15081J   26199.24254754  .00000214  00000+0  81516-4 0  9997
2 41187  47.0057  35.3630 0002460 333.8999  26.1763 14.58912870564614
ORBCOMM FM117           
1 41188U 15081K   26198.93436851  .00000218  00000+0  82287-4 0  9993
2 41188  47.0021  35.4466 0002884 340.6172  19.4603 14.58899752564614
ORBCOMM FM116           
1 41189U 15081L   26199.18842828  .00000148  00000+0  67478-4 0  9994
2 41189  47.0016 124.0343 0001646 237.6891 122.3836 14.58908278563464
